start=new Date('2022-04-07T00:00:00.000Z').valueOf();
sats=[{"TLE_LINE2":"2 47996  53.0430 164.1740 0002375 150.3082 143.5160 15.36481775  3641","ELEMENT_SET_NO":"999","LAUNCH_DATE":"2021-03-24","CENTER_NAME":"EARTH","REF_FRAME":"TEME","NORAD_CAT_ID":"47996","BSTAR":"-0.00044866000000","MEAN_MOTION_DOT":"-0.00016557","MEAN_ELEMENT_THEORY":"SGP4","SITE":"AFETR","EPHEMERIS_TYPE":"0","RCS_SIZE":"LARGE","COUNTRY_CODE":"US","DECAY_DATE":null,"SEMIMAJOR_AXIS":"6834.660","GP_ID":"200625539","REV_AT_EPOCH":"364","MEAN_MOTION":"15.36481775","OBJECT_ID":"2021-024V","FILE":"3391320","CLASSIFICATION_TYPE":"U","RA_OF_ASC_NODE":"164.1740","PERIAPSIS":"454.902","MEAN_ANOMALY":"143.5160","INCLINATION":"53.0430","EPOCH":"2022-04-06T22:00:00.999936","OBJECT_TYPE":"PAYLOAD","MEAN_MOTION_DDOT":"0.0000000000000","ARG_OF_PERICENTER":"150.3082","OBJECT_NAME":"STARLINK-2260","ECCENTRICITY":"0.00023750","TLE_LINE1":"1 47996U 21024V   22096.91667824 -.00016557  00000-0 -44866-3 0  9993","APOAPSIS":"458.148","PERIOD":"93.721","TIME_SYSTEM":"UTC"},{"TIME_SYSTEM":"UTC","PERIOD":"95.593","APOAPSIS":"548.463","TLE_LINE1":"1 47997U 21024W   22096.68685722  .00002612  00000-0  19422-3 0  9990","ECCENTRICITY":"0.00017650","OBJECT_NAME":"STARLINK-2266","MEAN_MOTION_DDOT":"0.0000000000000","ARG_OF_PERICENTER":"75.4220","OBJECT_TYPE":"PAYLOAD","EPOCH":"2022-04-06T16:29:04.463808","INCLINATION":"53.0541","PERIAPSIS":"546.018","MEAN_ANOMALY":"284.6964","RA_OF_ASC_NODE":"264.6262","FILE":"3391320","CLASSIFICATION_TYPE":"U","OBJECT_ID":"2021-024W","MEAN_MOTION":"15.06391171","REV_AT_EPOCH":"5892","GP_ID":"200625290","SEMIMAJOR_AXIS":"6925.376","DECAY_DATE":null,"COUNTRY_CODE":"US","RCS_SIZE":"LARGE","EPHEMERIS_TYPE":"0","SITE":"AFETR","MEAN_ELEMENT_THEORY":"SGP4","MEAN_MOTION_DOT":"0.00002612","BSTAR":"0.00019422000000","REF_FRAME":"TEME","NORAD_CAT_ID":"47997","CENTER_NAME":"EARTH","LAUNCH_DATE":"2021-03-24","ELEMENT_SET_NO":"999","TLE_LINE2":"2 47997  53.0541 264.6262 0001765  75.4220 284.6964 15.06391171 58920"},{"REV_AT_EPOCH":"5924","GP_ID":"200624038","MEAN_MOTION":"15.06391451","DECAY_DATE":null,"COUNTRY_CODE":"US","SEMIMAJOR_AXIS":"6925.375","MEAN_MOTION_DOT":"-0.00000004","RCS_SIZE":"LARGE","MEAN_ELEMENT_THEORY":"SGP4","SITE":"AFETR","EPHEMERIS_TYPE":"0","LAUNCH_DATE":"2021-03-24","CENTER_NAME":"EARTH","TLE_LINE2":"2 47998  53.0555 238.7911 0001507  65.3238 294.7908 15.06391451 59247","ELEMENT_SET_NO":"999","BSTAR":"0.00001865000000","REF_FRAME":"TEME","NORAD_CAT_ID":"47998","TLE_LINE1":"1 47998U 21024X   22096.87067378 -.00000004  00000-0  18650-4 0  9990","TIME_SYSTEM":"UTC","APOAPSIS":"548.283","PERIOD":"95.593","ECCENTRICITY":"0.00015070","OBJECT_NAME":"STARLINK-2296","EPOCH":"2022-04-06T20:53:46.214592","OBJECT_TYPE":"PAYLOAD","ARG_OF_PERICENTER":"65.3238","MEAN_MOTION_DDOT":"0.0000000000000","FILE":"3391320","CLASSIFICATION_TYPE":"U","OBJECT_ID":"2021-024X","INCLINATION":"53.0555","RA_OF_ASC_NODE":"238.7911","MEAN_ANOMALY":"294.7908","PERIAPSIS":"546.196"},{"MEAN_ELEMENT_THEORY":"SGP4","EPHEMERIS_TYPE":"0","SITE":"AFETR","RCS_SIZE":"LARGE","MEAN_MOTION_DOT":"-0.00060413","REF_FRAME":"TEME","NORAD_CAT_ID":"47999","BSTAR":"-0.00406960000000","TLE_LINE2":"2 47999  53.0547 208.5971 0001506  50.7622 343.9730 15.06416339  3606","ELEMENT_SET_NO":"999","LAUNCH_DATE":"2021-03-24","CENTER_NAME":"EARTH","MEAN_MOTION":"15.06416339","GP_ID":"200624788","REV_AT_EPOCH":"360","SEMIMAJOR_AXIS":"6925.298","COUNTRY_CODE":"US","DECAY_DATE":null,"ARG_OF_PERICENTER":"50.7622","MEAN_MOTION_DDOT":"0.0000000000000","EPOCH":"2022-04-06T22:00:00.999936","OBJECT_TYPE":"PAYLOAD","RA_OF_ASC_NODE":"208.5971","PERIAPSIS":"546.121","MEAN_ANOMALY":"343.9730","INCLINATION":"53.0547","OBJECT_ID":"2021-024Y","FILE":"3391320","CLASSIFICATION_TYPE":"U","APOAPSIS":"548.206","PERIOD":"95.591","TIME_SYSTEM":"UTC","TLE_LINE1":"1 47999U 21024Y   22096.91667824 -.00060413  00000-0 -40696-2 0  9992","OBJECT_NAME":"STARLINK-2218","ECCENTRICITY":"0.00015060"},{"OBJECT_NAME":"STARLINK-2270","ECCENTRICITY":"0.00022200","TLE_LINE1":"1 48000U 21024Z   22096.91667824 -.00062086  00000-0 -41826-2 0  9990","APOAPSIS":"548.672","PERIOD":"95.591","TIME_SYSTEM":"UTC","OBJECT_ID":"2021-024Z","CLASSIFICATION_TYPE":"U","FILE":"3391320","RA_OF_ASC_NODE":"193.5807","MEAN_ANOMALY":"125.0294","PERIAPSIS":"545.597","INCLINATION":"53.0545","EPOCH":"2022-04-06T22:00:00.999936","OBJECT_TYPE":"PAYLOAD","MEAN_MOTION_DDOT":"0.0000000000000","ARG_OF_PERICENTER":"32.1689","COUNTRY_CODE":"US","DECAY_DATE":null,"SEMIMAJOR_AXIS":"6925.270","GP_ID":"200625040","REV_AT_EPOCH":"359","MEAN_MOTION":"15.06425721","TLE_LINE2":"2 48000  53.0545 193.5807 0002220  32.1689 125.0294 15.06425721  3597","ELEMENT_SET_NO":"999","LAUNCH_DATE":"2021-03-24","CENTER_NAME":"EARTH","NORAD_CAT_ID":"48000","REF_FRAME":"TEME","BSTAR":"-0.00418260000000","MEAN_MOTION_DOT":"-0.00062086","MEAN_ELEMENT_THEORY":"SGP4","SITE":"AFETR","EPHEMERIS_TYPE":"0","RCS_SIZE":"LARGE"},{"REV_AT_EPOCH":"360","GP_ID":"200625790","MEAN_MOTION":"15.06403367","DECAY_DATE":null,"COUNTRY_CODE":"US","SEMIMAJOR_AXIS":"6925.338","MEAN_MOTION_DOT":"-0.00003213","RCS_SIZE":"LARGE","MEAN_ELEMENT_THEORY":"SGP4","EPHEMERIS_TYPE":"0","SITE":"AFETR","LAUNCH_DATE":"2021-03-24","CENTER_NAME":"EARTH","TLE_LINE2":"2 48002  53.0536 213.5822 0001710  56.7087  10.5147 15.06403367  3605","ELEMENT_SET_NO":"999","BSTAR":"-0.00019688000000","REF_FRAME":"TEME","NORAD_CAT_ID":"48002","TLE_LINE1":"1 48002U 21024AB  22096.91667824 -.00003213  00000-0 -19688-3 0  9991","TIME_SYSTEM":"UTC","APOAPSIS":"548.387","PERIOD":"95.592","ECCENTRICITY":"0.00017100","OBJECT_NAME":"STARLINK-2265","EPOCH":"2022-04-06T22:00:00.999936","OBJECT_TYPE":"PAYLOAD","ARG_OF_PERICENTER":"56.7087","MEAN_MOTION_DDOT":"0.0000000000000","CLASSIFICATION_TYPE":"U","FILE":"3391320","OBJECT_ID":"2021-024AB","INCLINATION":"53.0536","RA_OF_ASC_NODE":"213.5822","MEAN_ANOMALY":"10.5147","PERIAPSIS":"546.019"},{"TLE_LINE1":"1 48003U 21024AC  22096.85594590  .00006034  00000-0  42353-3 0  9991","APOAPSIS":"548.307","PERIOD":"95.592","TIME_SYSTEM":"UTC","OBJECT_NAME":"STARLINK-2263","ECCENTRICITY":"0.00016110","EPOCH":"2022-04-06T20:32:33.725760","OBJECT_TYPE":"PAYLOAD","MEAN_MOTION_DDOT":"0.0000000000000","ARG_OF_PERICENTER":"60.3572","OBJECT_ID":"2021-024AC","CLASSIFICATION_TYPE":"U","FILE":"3391320","RA_OF_ASC_NODE":"288.8598","PERIAPSIS":"546.076","MEAN_ANOMALY":"299.7578","INCLINATION":"53.0549","GP_ID":"200624538","REV_AT_EPOCH":"5853","MEAN_MOTION":"15.06407251","COUNTRY_CODE":"US","DECAY_DATE":null,"SEMIMAJOR_AXIS":"6925.326","MEAN_MOTION_DOT":"0.00006034","MEAN_ELEMENT_THEORY":"SGP4","SITE":"AFETR","EPHEMERIS_TYPE":"0","RCS_SIZE":"LARGE","TLE_LINE2":"2 48003  53.0549 288.8598 0001611  60.3572 299.7578 15.06407251 58532","ELEMENT_SET_NO":"999","LAUNCH_DATE":"2021-03-24","CENTER_NAME":"EARTH","NORAD_CAT_ID":"48003","REF_FRAME":"TEME","BSTAR":"0.00042353000000"},{"DECAY_DATE":null,"COUNTRY_CODE":"US","SEMIMAJOR_AXIS":"6925.371","REV_AT_EPOCH":"5895","GP_ID":"200624289","MEAN_MOTION":"15.06392635","LAUNCH_DATE":"2021-03-24","CENTER_NAME":"EARTH","TLE_LINE2":"2 48005  53.0538 258.9607 0001647  53.3580 306.7560 15.06392635 58956","ELEMENT_SET_NO":"999","BSTAR":"-0.00003656700000","REF_FRAME":"TEME","NORAD_CAT_ID":"48005","MEAN_MOTION_DOT":"-0.00000826","RCS_SIZE":"LARGE","MEAN_ELEMENT_THEORY":"SGP4","SITE":"AFETR","EPHEMERIS_TYPE":"0","ECCENTRICITY":"0.00016470","OBJECT_NAME":"STARLINK-2254","TLE_LINE1":"1 48005U 21024AE  22096.83291492 -.00000826  00000-0 -36567-4 0  9992","TIME_SYSTEM":"UTC","APOAPSIS":"548.377","PERIOD":"95.593","CLASSIFICATION_TYPE":"U","FILE":"3391320","OBJECT_ID":"2021-024AE","INCLINATION":"53.0538","RA_OF_ASC_NODE":"258.9607","PERIAPSIS":"546.096","MEAN_ANOMALY":"306.7560","EPOCH":"2022-04-06T19:59:23.849088","OBJECT_TYPE":"PAYLOAD","MEAN_MOTION_DDOT":"0.0000000000000","ARG_OF_PERICENTER":"53.3580"},{"MEAN_MOTION":"15.06416432","GP_ID":"200625540","REV_AT_EPOCH":"359","SEMIMAJOR_AXIS":"6925.298","COUNTRY_CODE":"US","DECAY_DATE":null,"EPHEMERIS_TYPE":"0","SITE":"AFETR","MEAN_ELEMENT_THEORY":"SGP4","RCS_SIZE":"LARGE","MEAN_MOTION_DOT":"-0.00018252","NORAD_CAT_ID":"48008","REF_FRAME":"TEME","BSTAR":"-0.00120900000000","ELEMENT_SET_NO":"999","TLE_LINE2":"2 48008  53.0531 193.5754 0001570  62.3534 274.8278 15.06416432  3596","CENTER_NAME":"EARTH","LAUNCH_DATE":"2021-03-24","PERIOD":"95.591","APOAPSIS":"548.250","TIME_SYSTEM":"UTC","TLE_LINE1":"1 48008U 21024AH  22096.91667824 -.00018252  00000-0 -12090-2 0  9995","OBJECT_NAME":"STARLINK-2271","ECCENTRICITY":"0.00015700","MEAN_MOTION_DDOT":"0.0000000000000","ARG_OF_PERICENTER":"62.3534","OBJECT_TYPE":"PAYLOAD","EPOCH":"2022-04-06T22:00:00.999936","PERIAPSIS":"546.076","MEAN_ANOMALY":"274.8278","RA_OF_ASC_NODE":"193.5754","INCLINATION":"53.0531","OBJECT_ID":"2021-024AH","CLASSIFICATION_TYPE":"U","FILE":"3391320"},{"OBJECT_ID":"2021-024AJ","CLASSIFICATION_TYPE":"U","FILE":"3391320","PERIAPSIS":"546.018","MEAN_ANOMALY":"310.5625","RA_OF_ASC_NODE":"268.8762","INCLINATION":"53.0573","OBJECT_TYPE":"PAYLOAD","EPOCH":"2022-04-06T20:19:17.335488","MEAN_MOTION_DDOT":"0.0000000000000","ARG_OF_PERICENTER":"49.5515","OBJECT_NAME":"STARLINK-2153","ECCENTRICITY":"0.00017420","TLE_LINE1":"1 48009U 21024AJ  22096.84672842  .00001198  00000-0  99339-4 0  9996","PERIOD":"95.592","APOAPSIS":"548.431","TIME_SYSTEM":"UTC","ELEMENT_SET_NO":"999","TLE_LINE2":"2 48009  53.0573 268.8762 0001742  49.5515 310.5625 15.06396543 58825","CENTER_NAME":"EARTH","LAUNCH_DATE":"2021-03-24","NORAD_CAT_ID":"48009","REF_FRAME":"TEME","BSTAR":"0.00009933900000","MEAN_MOTION_DOT":"0.00001198","SITE":"AFETR","EPHEMERIS_TYPE":"0","MEAN_ELEMENT_THEORY":"SGP4","RCS_SIZE":"LARGE","COUNTRY_CODE":"US","DECAY_DATE":null,"SEMIMAJOR_AXIS":"6925.359","GP_ID":"200625291","REV_AT_EPOCH":"5882","MEAN_MOTION":"15.06396543"}];
